{
  "type": "FeatureCollection",
  "features": [
    {
      "type": "Feature",
      "properties": {
        "norad_id": 41866,
        "name": "GOES 16",
        "group": "weather",
        "lat": 0.025238856891899582,
        "lon": 107.44270724821813,
        "alt_km": 35799.30190393953,
        "timestamp": "2025-12-08T08:59:00.414826+00:00",
        "meta_object_name": "GOES 16",
        "meta_object_id": "2016-071A",
        "meta_epoch": "2025-12-07T19:58:52.048704",
        "meta_mean_motion": 1.00271515,
        "meta_eccentricity": 0.00035005,
        "meta_inclination": 0.0664,
        "meta_ra_of_asc_node": 104.5463,
        "meta_arg_of_pericenter": 155.3383,
        "meta_mean_anomaly": 12.0135,
        "meta_ephemeris_type": 0,
        "meta_classification_type": "U",
        "meta_norad_cat_id": 41866,
        "meta_element_set_no": 999,
        "meta_rev_at_epoch": 3318,
        "meta_bstar": 0,
        "meta_mean_motion_dot": -8.8e-07,
        "meta_mean_motion_ddot": 0,
        "tle_line1": "1 41866U 16071A   25341.83254686 -.00000088  00000+0  00000+0 0  9992",
        "tle_line2": "2 41866   0.0664 104.5463 0003500 155.3383  12.0135  1.00271515 33181"
      },
      "geometry": {
        "type": "Point",
        "coordinates": [
          107.44270724821813,
          0.025238856891899582
        ]
      }
    },
    {
      "type": "Feature",
      "properties": {
        "norad_id": 41882,
        "name": "FENGYUN 4A",
        "group": "weather",
        "lat": -1.7664064912384396,
        "lon": -23.99396629772927,
        "alt_km": 35792.57680945093,
        "timestamp": "2025-12-08T08:59:00.414839+00:00",
        "meta_object_name": "FENGYUN 4A",
        "meta_object_id": "2016-077A",
        "meta_epoch": "2025-12-07T22:27:28.132128",
        "meta_mean_motion": 1.00275782,
        "meta_eccentricity": 0.00049743,
        "meta_inclination": 1.8367,
        "meta_ra_of_asc_node": 82.4374,
        "meta_arg_of_pericenter": 142.9149,
        "meta_mean_anomaly": 312.2873,
        "meta_ephemeris_type": 0,
        "meta_classification_type": "U",
        "meta_norad_cat_id": 41882,
        "meta_element_set_no": 999,
        "meta_rev_at_epoch": 3301,
        "meta_bstar": 0,
        "meta_mean_motion_dot": -3.54e-06,
        "meta_mean_motion_ddot": 0,
        "tle_line1": "1 41882U 16077A   25341.93574227 -.00000354  00000+0  00000+0 0  9999",
        "tle_line2": "2 41882   1.8367  82.4374 0004974 142.9149 312.2873  1.00275782 33017"
      },
      "geometry": {
        "type": "Point",
        "coordinates": [
          -23.99396629772927,
          -1.7664064912384396
        ]
      }
    },
    {
      "type": "Feature",
      "properties": {
        "norad_id": 41884,
        "name": "CYGFM05",
        "group": "weather",
        "lat": 29.30172962961912,
        "lon": -157.80104090987726,
        "alt_km": 412.7411562411671,
        "timestamp": "2025-12-08T08:59:00.414850+00:00",
        "meta_object_name": "CYGFM05",
        "meta_object_id": "2016-078A",
        "meta_epoch": "2025-12-07T23:10:19.179264",
        "meta_mean_motion": 15.47374396,
        "meta_eccentricity": 0.00095772,
        "meta_inclination": 34.9599,
        "meta_ra_of_asc_node": 78.3112,
        "meta_arg_of_pericenter": 138.5672,
        "meta_mean_anomaly": 221.5777,
        "meta_ephemeris_type": 0,
        "meta_classification_type": "U",
        "meta_norad_cat_id": 41884,
        "meta_element_set_no": 999,
        "meta_rev_at_epoch": 49902,
        "meta_bstar": 0.00046085442,
        "meta_mean_motion_dot": 0.00024362,
        "meta_mean_motion_ddot": 0,
        "tle_line1": "1 41884U 16078A   25341.96549976  .00024362  00000+0  46085-3 0  9999",
        "tle_line2": "2 41884  34.9599  78.3112 0009577 138.5672 221.5777 15.47374396499022"
      },
      "geometry": {
        "type": "Point",
        "coordinates": [
          -157.80104090987726,
          29.30172962961912
        ]
      }
    },
    {
      "type": "Feature",
      "properties": {
        "norad_id": 41885,
        "name": "CYGFM04",
        "group": "weather",
        "lat": -22.544222220327825,
        "lon": 14.052532218247924,
        "alt_km": 422.7087918878169,
        "timestamp": "2025-12-08T08:59:00.414862+00:00",
        "meta_object_name": "CYGFM04",
        "meta_object_id": "2016-078B",
        "meta_epoch": "2025-12-07T14:36:57.569760",
        "meta_mean_motion": 15.50045424,
        "meta_eccentricity": 0.00088176,
        "meta_inclination": 34.9352,
        "meta_ra_of_asc_node": 55.563,
        "meta_arg_of_pericenter": 164.3189,
        "meta_mean_anomaly": 195.7807,
        "meta_ephemeris_type": 0,
        "meta_classification_type": "U",
        "meta_norad_cat_id": 41885,
        "meta_element_set_no": 999,
        "meta_rev_at_epoch": 49914,
        "meta_bstar": 0.00053768111,
        "meta_mean_motion_dot": 0.00031257,
        "meta_mean_motion_ddot": 0,
        "tle_line1": "1 41885U 16078B   25341.60899965  .00031257  00000+0  53768-3 0  9994",
        "tle_line2": "2 41885  34.9352  55.5630 0008817 164.3189 195.7807 15.50045424499148"
      },
      "geometry": {
        "type": "Point",
        "coordinates": [
          14.052532218247924,
          -22.544222220327825
        ]
      }
    },
    {
      "type": "Feature",
      "properties": {
        "norad_id": 41886,
        "name": "CYGFM02",
        "group": "weather",
        "lat": -26.24980669060992,
        "lon": 3.9952207765201004,
        "alt_km": 419.41191218147014,
        "timestamp": "2025-12-08T08:59:00.414872+00:00",
        "meta_object_name": "CYGFM02",
        "meta_object_id": "2016-078C",
        "meta_epoch": "2025-12-07T14:40:07.968576",
        "meta_mean_motion": 15.51404281,
        "meta_eccentricity": 0.00105591,
        "meta_inclination": 34.944,
        "meta_ra_of_asc_node": 53.9401,
        "meta_arg_of_pericenter": 163.4673,
        "meta_mean_anomaly": 196.6395,
        "meta_ephemeris_type": 0,
        "meta_classification_type": "U",
        "meta_norad_cat_id": 41886,
        "meta_element_set_no": 999,
        "meta_rev_at_epoch": 49927,
        "meta_bstar": 0.00054697823,
        "meta_mean_motion_dot": 0.00033413,
        "meta_mean_motion_ddot": 0,
        "tle_line1": "1 41886U 16078C   25341.61120334  .00033413  00000+0  54698-3 0  9992",
        "tle_line2": "2 41886  34.9440  53.9401 0010559 163.4673 196.6395 15.51404281499276"
      },
      "geometry": {
        "type": "Point",
        "coordinates": [
          3.9952207765201004,
          -26.24980669060992
        ]
      }
    },
    {
      "type": "Feature",
      "properties": {
        "norad_id": 41887,
        "name": "CYGFM01",
        "group": "weather",
        "lat": 13.18733073559112,
        "lon": -121.5858984887531,
        "alt_km": 413.95209061196056,
        "timestamp": "2025-12-08T08:59:00.414883+00:00",
        "meta_object_name": "CYGFM01",
        "meta_object_id": "2016-078D",
        "meta_epoch": "2025-12-07T23:01:28.894080",
        "meta_mean_motion": 15.47944929,
        "meta_eccentricity": 0.00091549,
        "meta_inclination": 34.9429,
        "meta_ra_of_asc_node": 80.7346,
        "meta_arg_of_pericenter": 129.9517,
        "meta_mean_anomaly": 230.201,
        "meta_ephemeris_type": 0,
        "meta_classification_type": "U",
        "meta_norad_cat_id": 41887,
        "meta_element_set_no": 999,
        "meta_rev_at_epoch": 49896,
        "meta_bstar": 0.00045831873,
        "meta_mean_motion_dot": 0.00024714,
        "meta_mean_motion_ddot": 0,
        "tle_line1": "1 41887U 16078D   25341.95936220  .00024714  00000+0  45832-3 0  9993",
        "tle_line2": "2 41887  34.9429  80.7346 0009154 129.9517 230.2010 15.47944929498960"
      },
      "geometry": {
        "type": "Point",
        "coordinates": [
          -121.5858984887531,
          13.18733073559112
        ]
      }
    },
    {
      "type": "Feature",
      "properties": {
        "norad_id": 41888,
        "name": "CYGFM08",
        "group": "weather",
        "lat": -3.459764163061202,
        "lon": -113.96880203971322,
        "alt_km": 411.8386316247961,
        "timestamp": "2025-12-08T08:59:00.414895+00:00",
        "meta_object_name": "CYGFM08",
        "meta_object_id": "2016-078E",
        "meta_epoch": "2025-12-07T15:10:20.402976",
        "meta_mean_motion": 15.49121472,
        "meta_eccentricity": 0.00109911,
        "meta_inclination": 34.9461,
        "meta_ra_of_asc_node": 65.9239,
        "meta_arg_of_pericenter": 152.0024,
        "meta_mean_anomaly": 208.1291,
        "meta_ephemeris_type": 0,
        "meta_classification_type": "U",
        "meta_norad_cat_id": 41888,
        "meta_element_set_no": 999,
        "meta_rev_at_epoch": 49914,
        "meta_bstar": 0.00056094178,
        "meta_mean_motion_dot": 0.00031588,
        "meta_mean_motion_ddot": 0,
        "tle_line1": "1 41888U 16078E   25341.63218059  .00031588  00000+0  56094-3 0  9991",
        "tle_line2": "2 41888  34.9461  65.9239 0010991 152.0024 208.1291 15.49121472499142"
      },
      "geometry": {
        "type": "Point",
        "coordinates": [
          -113.96880203971322,
          -3.459764163061202
        ]
      }
    }
  ]
}